SatCatId,ObjectName,LaunchYear,OrbitalPeriod,LaunchMass,StatusCode,Inclination,Status,UcsData,OrbitClassEstimated,LaunchSiteCountry,Owner,UseType,Purpose,LaunchVehicleClass,TLE1,TLE2,MeanMotion,Eccentricity,OrbitClass
59410,STARLINK-31412,2024,93.46,-1.0,+,43.0,Active,0,LEO,USA,USA,Unknown,Unknown,Unknown,1 59410U 24064N   24239.62182141 -.00003708  00000+0 -81558-4 0  9990,2 59410  43.0036 357.9205 0000843 259.4796 100.5966 15.40697499 23359,15.40697499,8.43e-05,LEO
59411,STARLINK-31483,2024,93.46,-1.0,+,43.0,Active,0,LEO,USA,USA,Unknown,Unknown,Unknown,1 59411U 24064P   24239.63749732  .00000814  00000+0  26758-4 0  9991,2 59411  43.0047 358.0416 0002052 266.3721  93.6900 15.40695332 23351,15.40695332,0.0002052,LEO
59412,STARLINK-31568,2024,93.46,-1.0,+,43.0,Active,0,LEO,USA,USA,Unknown,Unknown,Unknown,1 59412U 24064Q   24239.63525408  .00001512  00000+0  43443-4 0  9990,2 59412  43.0065 358.0172 0000705 245.8394 114.2389 15.40697083 23358,15.40697083,7.05e-05,LEO
59413,STARLINK-31615,2024,93.46,-1.0,+,43.0,Active,0,LEO,USA,USA,Unknown,Unknown,Unknown,1 59413U 24064R   24239.61957647  .00002030  00000+0  55867-4 0  9992,2 59413  43.0008 357.8983 0001348 286.2376  73.8332 15.40685679 23352,15.40685679,0.0001348,LEO
59414,STARLINK-31457,2024,93.46,-1.0,+,43.01,Active,0,LEO,USA,USA,Unknown,Unknown,Unknown,1 59414U 24064S   24239.04478840  .00002120  00000+0  57981-4 0  9992,2 59414  43.0057 359.5740 0001834 276.2801  83.7847 15.40714590 23287,15.4071459,0.0001834,LEO
59415,STARLINK-31398,2024,93.46,-1.0,+,43.01,Active,0,LEO,USA,USA,Unknown,Unknown,Unknown,1 59415U 24064T   24239.61733240  .00000711  00000+0  24295-4 0  9990,2 59415  43.0064 357.8787 0001459 288.8413  71.2286 15.40697866 23352,15.40697866,0.0001459,LEO
59416,STARLINK-31399,2024,93.47,-1.0,+,43.0,Active,0,LEO,USA,USA,Unknown,Unknown,Unknown,1 59416U 24064U   24239.61286002  .00001896  00000+0  52663-4 0  9995,2 59416  43.0046 357.8475 0001086 263.1752  96.8981 15.40679972 23358,15.40679972,0.0001086,LEO
59417,STARLINK-31401,2024,93.47,-1.0,+,43.0,Active,0,LEO,USA,USA,Unknown,Unknown,Unknown,1 59417U 24064V   24239.61061351  .00003780  00000+0  97736-4 0  9998,2 59417  43.0024 357.8311 0001025 262.0364  98.0376 15.40691981 23103,15.40691981,0.0001025,LEO
59418,STARLINK-31414,2024,93.46,-1.0,+,43.01,Active,0,LEO,USA,USA,Unknown,Unknown,Unknown,1 59418U 24064W   24239.06299678 -.00000116  00000+0  44946-5 0  9990,2 59418  43.0062   1.4672 0002204 259.1279 100.9330 15.40693294 23269,15.40693294,0.0002204,LEO
59419,STARLINK-31415,2024,93.47,-1.0,+,43.0,Active,0,LEO,USA,USA,Unknown,Unknown,Unknown,1 59419U 24064X   24239.07198174 -.00003536  00000+0 -77453-4 0  9999,2 59419  42.9983   1.5312 0002615 132.2210 227.8869 15.40674959 23267,15.40674959,0.0002615,LEO
59420,STARLINK-31466,2024,93.46,-1.0,+,43.01,Active,0,LEO,USA,USA,Unknown,Unknown,Unknown,1 59420U 24064Y   24239.06747667 -.00001176  00000+0 -20890-4 0  9998,2 59420  43.0079   1.5014 0001767 236.1417 123.9272 15.40699023 23269,15.40699023,0.0001767,LEO
59421,STARLINK-11087 [DTC],2024,91.63,-1.0,+,53.16,Active,0,LEO,USA,USA,Unknown,Unknown,Unknown,1 59421U 24065A   24239.00174506  .00007986  00000+0  65654-4 0  9990,2 59421  53.1585 345.7267 0000585  98.8283 261.2802 15.71526175 23343,15.71526175,5.85e-05,LEO
59422,STARLINK-11090 [DTC],2024,91.63,-1.0,+,53.16,Active,0,LEO,USA,USA,Unknown,Unknown,Unknown,1 59422U 24065B   24239.57054028  .00002892  00000+0  26793-4 0  9991,2 59422  53.1573 342.8752 0001487  81.2071 278.9116 15.71483010 23445,15.7148301,0.0001487,LEO
59423,STARLINK-11093 [DTC],2024,91.63,-1.0,+,53.16,Active,0,LEO,USA,USA,Unknown,Unknown,Unknown,1 59423U 24065C   24239.56880590  .00016260  00000+0  12901-3 0  9991,2 59423  53.1572 342.8653 0001122 100.9807 259.1338 15.71481172 23441,15.71481172,0.0001122,LEO
59424,STARLINK-11083 [DTC],2024,91.63,-1.0,+,53.16,Active,0,LEO,USA,USA,Unknown,Unknown,Unknown,1 59424U 24065D   24239.56630741  .00015672  00000+0  12452-3 0  9990,2 59424  53.1575 342.8467 0000990 100.3144 259.7986 15.71481987 23380,15.71481987,9.9e-05,LEO
59425,STARLINK-11085 [DTC],2024,91.63,-1.0,+,53.16,Active,0,LEO,USA,USA,Unknown,Unknown,Unknown,1 59425U 24065E   24239.56367276  .00000270  00000+0  67193-5 0  9993,2 59425  53.1586 342.8293 0002256 103.6419 256.4851 15.71452849 23399,15.71452849,0.0002256,LEO
59426,STARLINK-11089 [DTC],2024,91.63,-1.0,+,53.16,Active,0,LEO,USA,USA,Unknown,Unknown,Unknown,1 59426U 24065F   24239.01785497  .00000396  00000+0  76674-5 0  9996,2 59426  53.1573 345.1185 0000942  83.4720 276.6406 15.71462681 23364,15.71462681,9.42e-05,LEO
59427,STARLINK-31757,2024,93.53,-1.0,+,53.16,Active,0,LEO,USA,USA,Unknown,Unknown,Unknown,1 59427U 24065G   24239.08445800 -.00000661  00000+0 -65440-5 0  9991,2 59427  53.1614  13.7801 0000986  86.4859 273.6259 15.39622091 22985,15.39622091,9.86e-05,LEO
59428,STARLINK-31752,2024,91.19,-1.0,P,53.15,Active,0,LEO,USA,USA,Unknown,Unknown,Unknown,1 59428U 24065H   24239.58334491  .00232849  00000+0  12463-2 0  9997,2 59428  53.1525 355.8947 0003440   3.6701  85.3465 15.79137651  5900,15.79137651,0.000344,LEO
59429,STARLINK-31773,2024,93.53,-1.0,+,53.16,Active,0,LEO,USA,USA,Unknown,Unknown,Unknown,1 59429U 24065J   24238.68124103 -.00009899  00000+0 -23805-3 0  9997,2 59429  53.1608  16.9421 0001127  77.4990 282.6141 15.39590473 22895,15.39590473,0.0001127,LEO
59430,STARLINK-31772,2024,93.53,-1.0,+,53.16,Active,0,LEO,USA,USA,Unknown,Unknown,Unknown,1 59430U 24065K   24238.90838119  .00003122  00000+0  87990-4 0  9990,2 59430  53.1627  15.5104 0001257  88.2742 271.8407 15.39622013 22936,15.39622013,0.0001257,LEO
59431,STARLINK-31613,2024,93.53,-1.0,+,53.16,Active,0,LEO,USA,USA,Unknown,Unknown,Unknown,1 59431U 24065L   24239.64566155  .00000846  00000+0  31132-4 0  9998,2 59431  53.1634  12.2976 0001157  81.0101 279.1035 15.39616306 23055,15.39616306,0.0001157,LEO
59432,STARLINK-31780,2024,93.53,-1.0,+,53.16,Active,0,LEO,USA,USA,Unknown,Unknown,Unknown,1 59432U 24065M   24239.09384590 -.00000467  00000+0 -16900-5 0  9997,2 59432  53.1623  14.5346 0001533  91.0157 269.1023 15.39617025 22975,15.39617025,0.0001533,LEO
59433,STARLINK-31740,2024,93.53,-1.0,+,53.16,Active,0,LEO,USA,USA,Unknown,Unknown,Unknown,1 59433U 24065N   24239.08000454  .00001277  00000+0  41887-4 0  9990,2 59433  53.1621  15.1648 0000980  82.3233 277.7883 15.39619589 22964,15.39619589,9.8e-05,LEO
59434,STARLINK-31580,2024,93.53,-1.0,+,53.16,Active,0,LEO,USA,USA,Unknown,Unknown,Unknown,1 59434U 24065P   24239.07535969  .00002367  00000+0  69134-4 0  9990,2 59434  53.1626  15.1352 0001144  77.7094 282.4039 15.39623489 22968,15.39623489,0.0001144,LEO
59435,STARLINK-31696,2024,93.53,-1.0,+,53.16,Active,0,LEO,USA,USA,Unknown,Unknown,Unknown,1 59435U 24065Q   24239.63636845  .00001589  00000+0  49696-4 0  9994,2 59435  53.1632  12.2377 0001260  87.9502 272.1648 15.39623063 23058,15.39623063,0.000126,LEO
59436,STARLINK-31700,2024,93.53,-1.0,+,53.16,Active,0,LEO,USA,USA,Unknown,Unknown,Unknown,1 59436U 24065R   24239.10743743  .00005064  00000+0  13649-3 0  9993,2 59436  53.1624  14.6201 0001564  96.7175 263.4008 15.39622760 22979,15.3962276,0.0001564,LEO
59437,STARLINK-31706,2024,93.53,-1.0,+,53.16,Active,0,LEO,USA,USA,Unknown,Unknown,Unknown,1 59437U 24065S   24239.65030038  .00000819  00000+0  30450-4 0  9993,2 59437  53.1625  12.3244 0001154  99.8446 260.2689 15.39626553 23057,15.39626553,0.0001154,LEO
59438,STARLINK-31711,2024,93.53,-1.0,+,53.16,Active,0,LEO,USA,USA,Unknown,Unknown,Unknown,1 59438U 24065T   24239.10777012  .00001313  00000+0  42804-4 0  9990,2 59438  53.1621  14.6242 0001360  88.7519 271.3641 15.39620417 22978,15.39620417,0.000136,LEO
59439,STARLINK-31708,2024,93.53,-1.0,+,53.16,Active,0,LEO,USA,USA,Unknown,Unknown,Unknown,1 59439U 24065U   24239.09815198 -.00001648  00000+0 -31225-4 0  9995,2 59439  53.1616  14.5610 0001206  83.4818 276.6324 15.39613453 22972,15.39613453,0.0001206,LEO
59440,STARLINK-31682,2024,91.74,-1.0,+,53.16,Active,0,LEO,USA,USA,Unknown,Unknown,Unknown,1 59440U 24065V   24239.02018834  .00004033  00000+0  38122-4 0  9994,2 59440  53.1575 345.8607 0001002  99.2281 260.8850 15.69717218 23367,15.69717218,0.0001002,LEO
59441,STARLINK-31693,2024,93.53,-1.0,+,53.16,Active,0,LEO,USA,USA,Unknown,Unknown,Unknown,1 59441U 24065W   24239.08919988 -.00002647  00000+0 -56222-4 0  9993,2 59441  53.1623  14.5062 0001714  87.7694 272.3507 15.39607865 22973,15.39607865,0.0001714,LEO
59442,TSAT-1A,2024,95.66,-1.0,+,45.61,Active,0,LEO,USA,India,Unknown,Unknown,Unknown,1 59442U 24066A   24239.53568482  .00008090  00000+0  57262-3 0  9994,2 59442  45.6084  73.8702 0005994  70.8700 289.2833 15.05335375 21015,15.05335375,0.0005994,LEO
59443,HAWK-8A,2024,96.43,-1.0,+,45.59,Active,0,LEO,USA,USA,Unknown,Unknown,Unknown,1 59443U 24066B   24239.28502005  .00005675  00000+0  55524-3 0  9991,2 59443  45.5947  76.7689 0005074 165.5594 194.5431 14.93249592 20956,14.93249592,0.0005074,LEO
59444,CAPELLA-14 (ACADIA-4),2024,96.63,-1.0,+,45.61,Active,0,LEO,USA,USA,Unknown,Unknown,Unknown,1 59444U 24066C   24234.07057112  .00006864  00000+0  71917-3 0  9993,2 59444  45.6100 105.3141 0001568 261.5062  98.5638 14.90231715 12523,14.90231715,0.0001568,LEO
59445,HAWK-8B,2024,96.43,-1.0,+,45.62,Active,0,LEO,USA,USA,Unknown,Unknown,Unknown,1 59445U 24066D   24239.28524903  .00005717  00000+0  55915-3 0  9995,2 59445  45.6207  77.1275 0005315 169.5383 190.5607 14.93251933 20944,14.93251933,0.0005315,LEO
59446,HAWK-9A,2024,96.43,-1.0,+,45.61,Active,0,LEO,USA,USA,Unknown,Unknown,Unknown,1 59446U 24066E   24239.25034008  .00005463  00000+0  53476-3 0  9993,2 59446  45.6100  76.7389 0004586 161.6724 198.4320 14.93292584 20945,14.93292584,0.0004586,LEO
59447,QPS-SAR-7 (TSUKUYOMI-II),2024,96.35,-1.0,+,45.61,Active,0,LEO,USA,Japan,Unknown,Unknown,Unknown,1 59447U 24066F   24239.52939122  .00009759  00000+0  90837-3 0  9999,2 59447  45.6086  74.6419 0004743 186.6568 173.4249 14.94584770 20998,14.9458477,0.0004743,LEO
